HST                     
1 20580U 90037B   26175.96652654  .00007148  00000+0  22544-3 0  9997
2 20580  28.4728  27.4055 0001442 233.5980 126.4483 15.30829347789769
POLAR                   
1 23802U 96013A   26172.65844433  .00000083  00000+0  00000+0 0  9998
2 23802  79.8598 226.9999 6474832 208.9246  90.1528  1.29846120144911
SWAS                    
1 25560U 98071A   26176.16563361  .00002669  00000+0  17183-3 0  9991
2 25560  69.8945 206.9431 0008785 251.7160 108.3049 15.09660889498475
CXO                     
1 25867U 99040B   26177.31113606  .00000484  00000+0  00000+0 0  9998
2 25867  56.2784 116.4107 7818645 310.1913   0.3296  0.37800874 17352
XMM-NEWTON              
1 25989U 99066A   26177.32484747  .00000006  00000+0  00000+0 0  9999
2 25989  64.4359 282.8679 4671049  64.7288   0.1080  0.50127949 23049
TERRA                   
1 25994U 99068A   26176.17289970  .00000362  00000+0  82728-4 0  9997
2 25994  97.9452 225.4025 0002213 166.0791 286.5226 14.61108857410776
CLUSTER II-FM7 (SAMBA)  
1 26410U 00041A   26177.06472445  .00005882  00000+0  00000+0 0  9994
2 26410 149.9012  52.3742 9061812 269.6784 359.6419  0.44870397 20352
CLUSTER II-FM8 (TANGO)  
1 26464U 00045B   26172.94229412  .00004849  00000+0  00000+0 0  9995
2 26464 150.1352  52.7746 9062813 269.8657   2.6673  0.44420336 20332
ODIN                    
1 26702U 01007A   26176.08925059  .00262742  00000+0  14705-2 0  9996
2 26702  97.3797 217.5522 0006632 132.9735 227.2089 15.78592061390648
TIMED                   
1 26998U 01055B   26176.17053940  .00000910  00000+0  86118-4 0  9993
2 26998  74.0663 218.9441 0001531 324.7901  35.3183 14.95307852332013
CORIOLIS                
1 27640U 03001A   26176.01879916  .00000092  00000+0  63760-4 0  9992
2 27640  98.7125 182.7840 0013835 185.5642 174.5383 14.19946790215339
SORCE                   
1 27651U 03004A   26174.84729145  .00001856  00000+0  14354-3 0  9997
2 27651  39.9898 223.6787 0016223 100.3840 259.8783 15.03739410272909
MOST                    
1 27843U 03031D   26175.95492630  .00000065  00000+0  49913-4 0  9990
2 27843  98.7044 183.5725 0008986 225.3245 134.7201 14.21323914191811
SCISAT 1                
1 27858U 03036A   26176.19411698  .00000594  00000+0  80508-4 0  9995
2 27858  73.9288 155.4341 0008297 225.7509 134.2987 14.81455644232630
SWIFT                   
1 28485U 04047A   26175.94522573  .00057656  00000+0  46641-3 0  9992
2 28485  20.5513 125.0243 0001465  47.4003 312.6566 15.69013211188089
HINODE (SOLAR-B)        
1 29479U 06041A   26176.02051425  .00000631  00000+0  11689-3 0  9990
2 29479  98.0544 192.0576 0015960 262.6030  97.3362 14.68632389 56026
SHIJIAN-6 02A (SJ-6 02A)
1 29505U 06046A   26176.20494476  .00005293  00000+0  27114-3 0  9991
2 29505  97.6360 217.3319 0004725 107.8664 252.3085 15.17020717 73488
SHIJIAN-6 02B (SJ-6 02B)
1 29506U 06046B   26176.21063878  .00000884  00000+0  73139-4 0  9991
2 29506  97.7163 205.2201 0015384  37.8375 322.3927 15.01393133 71941
FGRST (GLAST)           
1 33053U 08029A   26176.21688251  .00002588  00000+0  90368-4 0  9990
2 33053  25.5803 148.7236 0008374  62.7059 297.4331 15.23976521997062
SDO                     
1 36395U 10005A   26174.30590450 -.00000088  00000+0  00000+0 0  9993
2 36395  34.6648  86.2482 0001733  49.0122 144.1818  1.00270594 60125
CRYOSAT 2               
1 36508U 10013A   26176.21408248  .00000126  00000+0  30605-4 0  9994
2 36508  92.0359 279.2526 0002125  93.7804 266.3646 14.51901746859245
X-SAT                   
1 37389U 11015C   26176.22892866 -.00000118  00000+0 -32837-4 0  9991
2 37389  98.3512 152.8691 0013388 324.4135  35.6151 14.25207655788828
GCOM-W1 (SHIZUKU)       
1 38337U 12025A   26174.57766326  .00000328  00000+0  82822-4 0  9994
2 38337  98.2021 115.0366 0001698  71.2428 101.7942 14.57129425749967
NUSTAR                  
1 38358U 12031A   26176.25002315  .00005328  00000+0  27509-3 0  9997
2 38358   6.0286 333.6716 0008854 235.4807 208.5040 15.08874694  1309
NEOSSAT                 
1 39089U 13009D   26176.01440101  .00000139  00000+0  62960-4 0  9994
2 39089  98.4181 355.8609 0010220 218.2277 141.8185 14.35828953697864
BRITE-AUSTRIA           
1 39091U 13009F   26176.07878522  .00000166  00000+0  71218-4 0  9991
2 39091  98.3998 355.3192 0009524 210.7244 149.3386 14.36544953698188
IRIS                    
1 39197U 13033A   26176.11108763  .00000984  00000+0  11878-3 0  9996
2 39197  97.9328  15.3633 0023077 294.6296  65.2515 14.85899429701558
HISAKI (SPRINT-A)       
1 39253U 13049A   26174.75741055  .00000109  00000+0  62315-4 0  9993
2 39253  29.7171 186.6070 0136852  70.1162 291.4100 13.55545251632319
CASSIOPE                
1 39265U 13055A   26176.16395097  .00053660 -25555-6  58240-3 0  9992
2 39265  80.9142  57.0304 0289798  35.6523 326.3684 15.25909260668884
STSAT-3                 
1 39422U 13066G   26176.16958398  .00002430  00000+0  18591-3 0  9992
2 39422  97.6218 145.9290 0010540  23.0845 337.0852 15.02795739685406
SWARM B                 
1 39451U 13067A   26176.18618043  .00003613  00000+0  12872-3 0  9997
2 39451  87.7440 339.8861 0003083  81.6940 278.4659 15.28596142684466
